[{"OBJECT_NAME":"STARLINK-34167","OBJECT_ID":"2025-117AB","EPOCH":"2026-03-09T21:45:28.226016","MEAN_MOTION":15.3020776,"ECCENTRICITY":0.0001621,"INCLINATION":53.1625,"RA_OF_ASC_NODE":38.249,"ARG_OF_PERICENTER":140.5411,"MEAN_ANOMALY":219.5708,"EPHEMERIS_TYPE":0,"CLASSIFICATION_TYPE":"U","NORAD_CAT_ID":64228,"ELEMENT_SET_NO":999,"REV_AT_EPOCH":4459,"BSTAR":0.00068623604,"MEAN_MOTION_DOT":0.00020025,"MEAN_MOTION_DDOT":0},{"OBJECT_NAME":"CERISE","OBJECT_ID":"1995-033B","EPOCH":"2026-03-09T23:11:27.589056","MEAN_MOTION":15.32047731,"ECCENTRICITY":0.00057118,"INCLINATION":98.325,"RA_OF_ASC_NODE":273.5192,"ARG_OF_PERICENTER":211.8754,"MEAN_ANOMALY":148.214,"EPHEMERIS_TYPE":0,"CLASSIFICATION_TYPE":"U","NORAD_CAT_ID":23606,"ELEMENT_SET_NO":999,"REV_AT_EPOCH":66468,"BSTAR":0.00062940675,"MEAN_MOTION_DOT":0.00019422,"MEAN_MOTION_DDOT":0}]
